[{"OBJECT_NAME":"RSW-01","OBJECT_ID":"2021-076A","EPOCH":"2026-03-09T22:50:26.263104","MEAN_MOTION":13.42854538,"ECCENTRICITY":0.00146776,"INCLINATION":86.4145,"RA_OF_ASC_NODE":193.2211,"ARG_OF_PERICENTER":348.7522,"MEAN_ANOMALY":11.3292,"EPHEMERIS_TYPE":0,"CLASSIFICATION_TYPE":"U","NORAD_CAT_ID":49112,"ELEMENT_SET_NO":999,"REV_AT_EPOCH":22256,"BSTAR":-5.297471e-5,"MEAN_MOTION_DOT":-1.5e-7,"MEAN_MOTION_DDOT":0},{"OBJECT_NAME":"DELTA 1 DEB","OBJECT_ID":"1975-052S","EPOCH":"2026-03-09T18:43:14.301696","MEAN_MOTION":13.3431261,"ECCENTRICITY":0.00567656,"INCLINATION":99.9951,"RA_OF_ASC_NODE":2.7657,"ARG_OF_PERICENTER":172.8746,"MEAN_ANOMALY":243.6069,"EPHEMERIS_TYPE":0,"CLASSIFICATION_TYPE":"U","NORAD_CAT_ID":21281,"ELEMENT_SET_NO":999,"REV_AT_EPOCH":69647,"BSTAR":0.00021982823,"MEAN_MOTION_DOT":6.7e-7,"MEAN_MOTION_DDOT":0}]
